OBJECT_NAME,OBJECT_ID,EPOCH,MEAN_MOTION,ECCENTRICITY,INCLINATION,RA_OF_ASC_NODE,ARG_OF_PERICENTER,MEAN_ANOMALY,EPHEMERIS_TYPE,CLASSIFICATION_TYPE,NORAD_CAT_ID,ELEMENT_SET_NO,REV_AT_EPOCH,BSTAR,MEAN_MOTION_DOT,MEAN_MOTION_DDOT
STARLINK-3256,2021-125AY,2026-06-22T13:55:19.375968,15.08835454,.00015696,53.1627,128.1236,95.0854,265.0317,0,U,50202,999,25256,-.37836347E-4,-.89E-5,0
STARLINK-3257,2021-125AZ,2026-06-22T14:44:23.982144,15.08834865,.00015054,53.1593,128.0574,82.5299,277.5863,0,U,50203,999,25263,.22364434E-4,.68E-6,0
STARLINK-3254,2021-125BA,2026-06-22T14:07:18.079680,15.08829468,.0001445,53.1603,128.0942,91.4618,268.6539,0,U,50204,999,25262,.16143167E-4,-.31E-6,0
STARLINK-3260,2021-125BB,2026-06-22T12:41:10.699584,15.08835620,.00018053,53.1621,98.3532,94.2808,265.8390,0,U,50205,999,25298,.17395484E-4,-.11E-6,0
STARLINK-3323,2022-001B,2026-06-21T22:49:08.898816,15.08833452,.00012613,53.1617,50.9519,91.0790,269.0346,0,U,50804,999,24628,.20409797E-4,.37E-6,0
STARLINK-3333,2022-001C,2026-06-22T08:16:09.970176,15.08826569,.0001293,53.1611,49.1817,78.4375,281.6761,0,U,50805,999,24634,.40830494E-4,.362E-5,0
STARLINK-3335,2022-001D,2026-06-21T19:27:46.741824,15.08834581,.00012191,53.1606,51.5831,81.5533,278.5596,0,U,50806,999,24626,-.2868493E-5,-.334E-5,0
STARLINK-3355,2022-001F,2026-06-21T19:17:10.959648,15.08832941,.00017885,53.1620,51.6125,94.7033,265.4162,0,U,50808,999,24626,-.4641143E-5,-.362E-5,0
STARLINK-3232,2022-001G,2026-06-21T22:33:15.011712,15.08835848,.00014801,53.1622,51.0018,94.3794,265.7367,0,U,50809,999,24628,-.22848347E-4,-.652E-5,0
STARLINK-3338,2022-001K,2026-06-22T08:42:41.766624,15.08800639,.00012079,53.1603,49.2044,102.9546,257.1580,0,U,50812,999,24634,.37826686E-3,.5731E-4,0
STARLINK-3349,2022-001L,2026-06-22T12:35:03.185088,15.46327290,.0001137,53.2033,348.8090,231.0064,129.0843,0,U,50813,999,24722,.89907305E-3,.44898E-3,0
STARLINK-3324,2022-001M,2026-06-22T16:43:33.909600,15.08830872,.00009842,53.1609,57.5991,95.3142,264.7962,0,U,50814,999,24626,-.3011343E-5,-.336E-5,0
STARLINK-3234,2022-001N,2026-06-22T16:59:27.868416,15.08829879,.00013187,53.1612,57.5495,94.6486,265.4656,0,U,50815,999,24626,.22087942E-4,.63E-6,0
STARLINK-3342,2022-001P,2026-06-22T09:24:20.595456,15.17894756,.00031963,53.2113,52.5600,117.4072,242.7250,0,U,50816,999,24630,.11052116E-2,.22433E-3,0
STARLINK-3341,2022-001Q,2026-06-22T16:54:09.832608,15.08830395,.00015264,53.1599,57.5629,96.6724,263.4442,0,U,50817,999,24626,.77592411E-4,.947E-5,0
STARLINK-3336,2022-001R,2026-06-22T10:06:07.500960,15.08833835,.00016262,53.1613,58.8416,80.4808,279.6367,0,U,50818,999,24621,.47231994E-4,.464E-5,0
STARLINK-3327,2022-001S,2026-06-22T16:38:15.732096,15.08845307,.00009134,53.1606,57.6138,113.3965,246.7123,0,U,50819,999,24626,-.11726715E-3,-.2154E-4,0
STARLINK-3339,2022-001T,2026-06-22T09:50:13.553376,15.08827976,.00012634,53.1592,58.8893,89.0282,271.0855,0,U,50820,999,24621,-.70892089E-4,-.1416E-4,0
STARLINK-3346,2022-001U,2026-06-22T17:10:01.911360,15.08835108,.0001535,53.1618,57.3997,89.6323,270.4845,0,U,50821,999,24626,.67605237E-4,.788E-5,0
STARLINK-3343,2022-001V,2026-06-22T09:39:38.630016,15.08833274,.00014074,53.1608,58.9214,99.9147,260.2004,0,U,50822,999,24621,.13099921E-3,.1797E-4,0
STARLINK-3334,2022-001W,2026-06-22T16:48:51.961824,15.08828508,.00014382,53.1608,57.5825,85.5128,274.6028,0,U,50823,999,24626,.48936991E-4,.491E-5,0
STARLINK-3332,2022-001Y,2026-06-22T09:44:55.713696,15.08833805,.00009668,53.1612,58.9048,82.1297,277.9805,0,U,50825,999,24621,.12878898E-4,-.83E-6,0
STARLINK-3329,2022-001AA,2026-06-22T10:00:49.207680,15.08838417,.00014371,53.1599,58.8558,91.9144,268.2012,0,U,50827,999,24621,.8546823E-4,.1072E-4,0
STARLINK-3290,2022-001AB,2026-06-22T09:40:59.548800,15.08830745,.0001063,53.1594,58.8093,91.0136,269.0977,0,U,50828,999,24606,-.6642324E-5,-.394E-5,0
STARLINK-3294,2022-001AC,2026-06-21T23:03:43.305696,15.08835564,.00013008,53.1599,60.9076,86.8246,273.2894,0,U,50829,999,24614,.15040615E-4,-.49E-6,0
STARLINK-3278,2022-001AD,2026-06-22T10:36:06.350688,15.09166886,.00012826,53.1614,68.7409,108.2634,251.8498,0,U,50830,999,24608,.26468513E-2,.42472E-3,0
STARLINK-3299,2022-001AE,2026-06-22T09:18:28.518912,15.08781679,.00024177,53.1622,59.0560,49.8165,310.3038,0,U,50831,999,24621,.9981817E-3,.15609E-3,0
STARLINK-3328,2022-001AF,2026-06-22T10:35:38.720832,15.09183376,.00015172,53.1719,68.7975,102.8538,257.2624,0,U,50832,999,24608,.77941206E-3,.12255E-3,0
STARLINK-3331,2022-001AH,2026-06-21T16:42:55.072800,15.10371146,.00005385,53.1614,72.0760,58.3523,301.7521,0,U,50834,999,24596,.69374355E-2,.116774E-2,0
STARLINK-3310,2022-001AJ,2026-06-22T17:23:34.575936,15.10741855,.00018061,53.2161,67.3210,98.2248,261.8950,0,U,50835,999,24612,.76391045E-3,.1254E-3,0
