STARLINK-3256           
1 50202U 21125AY  26173.58008537 -.00000890  00000+0 -37836-4 0  9994
2 50202  53.1627 128.1236 0001569  95.0854 265.0317 15.08835454252567
STARLINK-3257           
1 50203U 21125AZ  26173.61416646  .00000068  00000+0  22364-4 0  9998
2 50203  53.1593 128.0574 0001505  82.5299 277.5863 15.08834865252635
STARLINK-3254           
1 50204U 21125BA  26173.58840370 -.00000031  00000+0  16143-4 0  9999
2 50204  53.1603 128.0942 0001445  91.4618 268.6539 15.08829468252627
STARLINK-3260           
1 50205U 21125BB  26173.52859606 -.00000011  00000+0  17395-4 0  9994
2 50205  53.1621  98.3532 0001805  94.2808 265.8390 15.08835620252984
STARLINK-3323           
1 50804U 22001B   26172.95079744  .00000037  00000+0  20410-4 0  9995
2 50804  53.1617  50.9519 0001261  91.0790 269.0346 15.08833452246288
STARLINK-3333           
1 50805U 22001C   26173.34455984  .00000362  00000+0  40830-4 0  9993
2 50805  53.1611  49.1817 0001293  78.4375 281.6761 15.08826569246346
STARLINK-3335           
1 50806U 22001D   26172.81095766 -.00000334  00000+0 -28685-5 0  9999
2 50806  53.1606  51.5831 0001219  81.5533 278.5596 15.08834581246268
STARLINK-3355           
1 50808U 22001F   26172.80359907 -.00000362  00000+0 -46411-5 0  9998
2 50808  53.1620  51.6125 0001788  94.7033 265.4162 15.08832941246267
STARLINK-3232           
1 50809U 22001G   26172.93975708 -.00000652  00000+0 -22848-4 0  9995
2 50809  53.1622  51.0018 0001480  94.3794 265.7367 15.08835848246285
STARLINK-3338           
1 50812U 22001K   26173.36298341  .00005731  00000+0  37827-3 0  9991
2 50812  53.1603  49.2044 0001207 102.9546 257.1580 15.08800639246343
STARLINK-3349           
1 50813U 22001L   26173.52434242  .00044898  00000+0  89907-3 0  9995
2 50813  53.2033 348.8090 0001137 231.0064 129.0843 15.46327290247228
STARLINK-3324           
1 50814U 22001M   26173.69692025 -.00000336  00000+0 -30113-5 0  9997
2 50814  53.1609  57.5991 0000984  95.3142 264.7962 15.08830872246263
STARLINK-3234           
1 50815U 22001N   26173.70796144  .00000063  00000+0  22088-4 0  9993
2 50815  53.1612  57.5495 0001318  94.6486 265.4656 15.08829879246265
STARLINK-3342           
1 50816U 22001P   26173.39190504  .00022433  00000+0  11052-2 0  9999
2 50816  53.2113  52.5600 0003196 117.4072 242.7250 15.17894756246306
STARLINK-3341           
1 50817U 22001Q   26173.70428047  .00000947  00000+0  77592-4 0  9990
2 50817  53.1599  57.5629 0001526  96.6724 263.4442 15.08830395246264
STARLINK-3336           
1 50818U 22001R   26173.42092015  .00000464  00000+0  47232-4 0  9994
2 50818  53.1613  58.8416 0001626  80.4808 279.6367 15.08833835246217
STARLINK-3327           
1 50819U 22001S   26173.69323764 -.00002154  00000+0 -11727-3 0  9991
2 50819  53.1606  57.6138 0000913 113.3965 246.7123 15.08845307246263
STARLINK-3339           
1 50820U 22001T   26173.40987909 -.00001416  00000+0 -70892-4 0  9998
2 50820  53.1592  58.8893 0001263  89.0282 271.0855 15.08827976246210
STARLINK-3346           
1 50821U 22001U   26173.71529990  .00000788  00000+0  67605-4 0  9992
2 50821  53.1618  57.3997 0001535  89.6323 270.4845 15.08835108246266
STARLINK-3343           
1 50822U 22001V   26173.40253044  .00001797  00000+0  13100-3 0  9994
2 50822  53.1608  58.9214 0001407  99.9147 260.2004 15.08833274246212
STARLINK-3334           
1 50823U 22001W   26173.70060141  .00000491  00000+0  48937-4 0  9999
2 50823  53.1608  57.5825 0001438  85.5128 274.6028 15.08828508246264
STARLINK-3332           
1 50825U 22001Y   26173.40620039 -.00000083  00000+0  12879-4 0  9990
2 50825  53.1612  58.9048 0000966  82.1297 277.9805 15.08833805246218
STARLINK-3329           
1 50827U 22001AA  26173.41723620  .00001072  00000+0  85468-4 0  9995
2 50827  53.1599  58.8558 0001437  91.9144 268.2012 15.08838417246219
STARLINK-3290           
1 50828U 22001AB  26173.40346700 -.00000394  00000+0 -66423-5 0  9994
2 50828  53.1594  58.8093 0001063  91.0136 269.0977 15.08830745246064
STARLINK-3294           
1 50829U 22001AC  26172.96091789 -.00000049  00000+0  15041-4 0  9994
2 50829  53.1599  60.9076 0001300  86.8246 273.2894 15.08835564246141
STARLINK-3278           
1 50830U 22001AD  26173.44174017  .00042472  00000+0  26469-2 0  9995
2 50830  53.1614  68.7409 0001282 108.2634 251.8498 15.09166886246086
STARLINK-3299           
1 50831U 22001AE  26173.38783008  .00015609  00000+0  99818-3 0  9996
2 50831  53.1622  59.0560 0002417  49.8165 310.3038 15.08781679246215
STARLINK-3328           
1 50832U 22001AF  26173.44142038  .00012255  00000+0  77941-3 0  9993
2 50832  53.1719  68.7975 0001517 102.8538 257.2624 15.09183376246080
STARLINK-3331           
1 50834U 22001AH  26172.69647075  .00116774  00000+0  69374-2 0  9993
2 50834  53.1614  72.0760 0000538  58.3523 301.7521 15.10371146245960
STARLINK-3310           
1 50835U 22001AJ  26173.72470574  .00012540  00000+0  76391-3 0  9991
2 50835  53.2161  67.3210 0001806  98.2248 261.8950 15.10741855246121
